STARLINK-1438           
1 45715U 20035BL  20304.28755701  .00036072  00000-0  24037-3 0  9993
2 45715  52.9934 152.7196 0003446   4.0144 356.0901 15.75048531 24242
STARLINK-1439           
1 45716U 20035BM  20303.91667824  .00003939  00000-0  62909-4 0  9998
2 45716  52.9991 163.9693 0008401   8.1668  99.7606 15.55821254  1779
STARLINK-1461           
1 45730U 20038A   20304.25001157  .00002081  00000-0  16196-3 0  9999
2 45730  53.0019  19.4057 0001186  99.6550  58.5181 15.05580978 22432
STARLINK-1465           
1 45731U 20038B   20304.58335648 -.00024802  00000-0 -16880-2 0  9997
2 45731  53.0004  17.9201 0000968  92.4614   1.5299 15.05601756 22335
STARLINK-1466           
1 45732U 20038C   20304.58335648  .00021982  00000-0  15238-2 0  9998
2 45732  53.0005  17.9156 0000944  91.6507  56.3066 15.05563219 22489
STARLINK-1467           
1 45733U 20038D   20303.91667824 -.00028225  00000-0 -19252-2 0  9998
2 45733  53.0016  20.9013 0001005 103.4743 353.0086 15.05589967  1755
STARLINK-1468           
1 45734U 20038E   20304.58335648  .00024578  00000-0  17001-2 0  9994
2 45734  52.9988  17.9382 0001026  89.6966 112.3035 15.05580024 22480
STARLINK-1471           
1 45735U 20038F   20303.91667824 -.00032341  00000-0 -22100-2 0  9990
2 45735  52.9996  20.9123 0001085  83.3512 265.1421 15.05590803  1759
STARLINK-1472           
1 45736U 20038G   20304.58335648  .00020345  00000-0  14114-2 0  9996
2 45736  53.0006  17.9181 0000928  82.1998  47.7905 15.05582187 22484
STARLINK-1473           
1 45737U 20038H   20304.58335648 -.00119246  00000-0 -85482-3 0  9995
2 45737  53.0015 324.6161 0002778  14.1629 169.9886 15.73255528 23221
STARLINK-1474           
1 45738U 20038J   20304.58335648  .00018198  00000-0  12654-2 0  9998
2 45738  53.0001  17.9187 0001205 110.2309 325.6668 15.05565745 22480
STARLINK-1475           
1 45739U 20038K   20303.91667824 -.00525848  00000-0 -20513-1 0  9998
2 45739  52.9949 342.5473 0003263 279.6920  29.0865 15.27748143  1761
STARLINK-1479           
1 45740U 20038L   20303.91667824 -.00031870  00000-0 -21763-2 0  9996
2 45740  52.9999  20.9127 0001299  94.0320 272.5074 15.05608238  1764
STARLINK-1480           
1 45741U 20038M   20303.91667824 -.00028964  00000-0 -19754-2 0  9994
2 45741  53.0050  20.8923 0001071 120.9720  47.5443 15.05607460  1754
STARLINK-1481           
1 45742U 20038N   20304.58335648 -.00028804  00000-0 -19651-2 0  9994
2 45742  53.0004  17.9282 0000812  97.1548 140.8763 15.05592566 22489
STARLINK-1483           
1 45743U 20038P   20304.50002315 -.00012357  00000-0 -82998-3 0  9990
2 45743  53.0017  18.2964 0001224  90.0608 235.9755 15.05597430 22327
STARLINK-1500           
1 45744U 20038Q   20303.91667824 -.00032362  00000-0 -22115-2 0  9999
2 45744  53.0006  20.9167 0001072  82.8091 193.6603 15.05589852  1752
STARLINK-1503           
1 45745U 20038R   20303.91667824 -.00032377  00000-0 -22119-2 0  9990
2 45745  53.0011  20.9111 0001188  84.1187 246.3445 15.05599535  1756
STARLINK-1504           
1 45746U 20038S   20304.58335648  .00024173  00000-0  16738-2 0  9994
2 45746  53.0012  17.9210 0001251  75.0676 198.9357 15.05552076 22292
STARLINK-1506           
1 45747U 20038T   20303.91667824 -.00031530  00000-0 -21536-2 0  9994
2 45747  52.9992  20.9139 0001211  95.1176 145.3483 15.05594481  1756
STARLINK-1507           
1 45748U 20038U   20303.91667824 -.00032642  00000-0 -22312-2 0  9993
2 45748  53.0003  20.9144 0001014  79.9361 232.5541 15.05584222  1751
STARLINK-1516           
1 45749U 20038V   20304.46643488  .00021664  00000-0  19092-3 0  9997
2 45749  52.9982 334.4519 0002028   5.0316 355.0719 15.68698625 22899
STARLINK-1391           
1 45750U 20038W   20304.58335648  .00043626  00000-0  29973-2 0  9998
2 45750  53.0020 357.9187 0001087  78.7157  14.9527 15.05549917 22765
STARLINK-1464           
1 45751U 20038X   20304.58335648  .00044380  00000-0  30486-2 0  9998
2 45751  52.9999 357.9163 0001132  84.4057  27.3207 15.05547206 22769
STARLINK-1469           
1 45752U 20038Y   20303.91667824 -.00025340  00000-0 -23609-3 0  9996
2 45752  52.9997 325.5430 0001096  71.6754 325.0828 15.66271861  1770
STARLINK-1476           
1 45753U 20038Z   20303.91667824 -.00005618  00000-0 -36660-3 0  9994
2 45753  53.0009   0.9064 0001025  93.0926 309.1118 15.05593865  1763
STARLINK-1477           
1 45754U 20038AA  20303.91667824 -.00006130  00000-0 -40228-3 0  9990
2 45754  53.0028   0.9072 0001194  86.9583 297.2210 15.05547221  1766
STARLINK-1478           
1 45755U 20038AB  20303.91667824 -.00007149  00000-0 -47177-3 0  9992
2 45755  53.0008   0.9106 0001206  82.5160 193.6941 15.05598249  1755
STARLINK-1484           
1 45756U 20038AC  20303.91667824 -.00007413  00000-0 -49026-3 0  9992
2 45756  53.0007   0.9077 0000876  83.1291 229.0737 15.05572233  1758
STARLINK-1486           
1 45757U 20038AD  20303.91667824 -.00006063  00000-0 -39738-3 0  9992
2 45757  52.9922   0.9527 0001304  77.3012 126.9084 15.05570233  1754
STARLINK-1487           
1 45758U 20038AE  20303.91667824 -.00006544  00000-0 -43021-3 0  9997
2 45758  52.9945   0.9370 0000965  86.4458 153.7664 15.05594827  1750
STARLINK-1493           
1 45759U 20038AF  20304.25001157 -.00057420  00000-0 -39506-2 0  9998
2 45759  53.0022 359.4120 0000885 108.5748 247.3561 15.05609774 22525
STARLINK-1494           
1 45760U 20038AG  20303.91667824 -.00007182  00000-0 -47414-3 0  9999
2 45760  53.0021   0.9068 0001108  93.6340 236.5831 15.05588340  1753
STARLINK-1495           
1 45761U 20038AH  20303.91667824 -.00005290  00000-0 -34419-3 0  9999
2 45761  53.0017   0.8986 0000795 123.8942  62.2355 15.05582797  1757
STARLINK-1499           
1 45762U 20038AJ  20303.91667824 -.00004593  00000-0 -29618-3 0  9990
2 45762  53.0003   0.9084 0001105  76.4228  37.7943 15.05589597  1754
STARLINK-1501           
1 45763U 20038AK  20303.91667824 -.00005156  00000-0 -33504-3 0  9996
2 45763  53.0016   0.9096 0000758 133.4853  34.6647 15.05576376  1751
STARLINK-1502           
1 45764U 20038AL  20303.91667824  .00051602  00000-0  35365-2 0  9998
2 45764  52.9989   0.9122 0001178  95.5020  54.6063 15.05563247  1757
STARLINK-1508           
1 45765U 20038AM  20304.16667824 -.00034343  00000-0 -23480-2 0  9997
2 45765  53.0009 359.7889 0001282  94.4283 313.5948 15.05600924 22524
STARLINK-1509           
1 45766U 20038AN  20304.16667824 -.00042538  00000-0 -29160-2 0  9994
2 45766  52.9887 359.8465 0001158  90.1599  47.8805 15.05603674 22516
STARLINK-1511           
1 45767U 20038AP  20304.25001157 -.00019709  00000-0 -13371-2 0  9997
2 45767  52.9991 359.4179 0000937 104.9853 160.9332 15.05584507 22528
STARLINK-1521           
1 45768U 20038AQ  20304.16667824  .00015513  00000-0  10817-2 0  9996
2 45768  53.0021 359.7853 0001276  74.6268 207.3603 15.05574327 22512
STARLINK-1459           
1 45769U 20038AR  20303.91667824 -.00032555  00000-0 -22247-2 0  9996
2 45769  52.9994  20.9196 0001100  91.7710 202.7125 15.05592568  1753
STARLINK-1462           
1 45770U 20038AS  20303.91667824 -.01061854  00000-0 -60197-1 0  9998
2 45770  52.9974 341.1721 0001363  85.1294 154.5302 15.15243298  1755
STARLINK-1463           
1 45771U 20038AT  20303.91667824 -.01059289  00000-0 -48756-1 0  9995
2 45771  53.0001 341.4786 0001428  66.6058  47.2496 15.22848932  1764
STARLINK-1470           
1 45772U 20038AU  20303.91667824 -.01064485  00000-0 -57171-1 0  9991
2 45772  53.0014 341.1228 0001325  69.0279 228.7865 15.17136133  1757
STARLINK-1482           
1 45773U 20038AV  20303.91667824 -.01052610  00000-0 -55938-1 0  9998
2 45773  53.0019 341.1376 0001240  79.8966 238.9171 15.17939033  1758
STARLINK-1485           
1 45774U 20038AW  20303.91667824 -.01057831  00000-0 -50876-1 0  9995
2 45774  53.0010 341.0667 0001383  58.4969 346.1361 15.21364422  2029
STARLINK-1488           
1 45775U 20038AX  20304.50002315  .06186309  00000-0  26888+0 0  9990
2 45775  52.9989 338.3989 0005756  65.3362 348.2870 15.16859500 22885
STARLINK-1489           
1 45776U 20038AY  20302.86387810 -.00256512  00000-0 -10452-1 0  9996
2 45776  53.0015 345.9376 0001882 357.5398   2.5589 15.25116034 22787
STARLINK-1490           
1 45777U 20038AZ  20304.50002315 -.01063629  00000-0 -58794-1 0  9991
2 45777  52.9988 338.4336 0001408  56.6841 327.0330 15.16131153 23040
STARLINK-1491           
1 45778U 20038BA  20304.50002315 -.01059850  00000-0 -62663-1 0  9993
2 45778  52.9950 338.4556 0001429  92.5838  74.4586 15.13757147 23020
STARLINK-1492           
1 45779U 20038BB  20304.50002315 -.01060626  00000-0 -61739-1 0  9990
2 45779  52.9983 338.5322 0001443  96.6769  98.3737 15.14309523 23039
STARLINK-1496           
1 45780U 20038BC  20304.50002315 -.01060149  00000-0 -62973-1 0  9993
2 45780  52.9980 338.6351 0001407  89.2051  43.4659 15.13593463 22842
STARLINK-1497           
1 45781U 20038BD  20304.50002315 -.01064698  00000-0 -56857-1 0  9991
2 45781  53.0011 338.5090 0001309 100.2102 189.6519 15.17334738 22841
STARLINK-1498           
1 45782U 20038BE  20304.50002315 -.01052702  00000-0 -55619-1 0  9990
2 45782  53.0028 338.4785 0001281  71.3370 239.2892 15.18139375 22841
STARLINK-1505           
1 45783U 20038BF  20304.50002315 -.01051952  00000-0 -56167-1 0  9996
2 45783  53.0030 338.5132 0001313  71.3143 228.8972 15.17774002 22840
STARLINK-1510           
1 45784U 20038BG  20304.58335648 -.01059610  00000-0 -62880-1 0  9991
2 45784  52.9984 338.2182 0001397  75.5579 166.3971 15.13626472 22859
STARLINK-1512           
1 45785U 20038BH  20304.58335648 -.01062129  00000-0 -60186-1 0  9998
2 45785  53.0014 338.0810 0001308  65.6781 261.6217 15.15259884 22852
STARLINK-1513           
1 45786U 20038BJ  20304.58335648 -.01064733  00000-0 -57646-1 0  9999
2 45786  53.0023 338.1182 0001306  65.1862 307.7848 15.16857571 22859
STARLINK-1517           
1 45787U 20038BK  20304.58335648 -.01063267  00000-0 -58910-1 0  9996
2 45787  53.0019 338.1024 0001244  75.1244 275.4377 15.16050532 22856
